{
  "type": "FeatureCollection",
  "features": [
    {
      "type": "Feature",
      "properties": {
        "norad_id": 66775,
        "name": "PHI 1",
        "group": "last-30-days",
        "lat": 15.258202716546883,
        "lon": 70.85289780516736,
        "alt_km": 509.394288167573,
        "timestamp": "2025-12-27T08:36:17.077831+00:00",
        "meta_object_name": "PHI 1",
        "meta_object_id": "2025-276DP",
        "meta_epoch": "2025-12-27T03:47:35.952864",
        "meta_mean_motion": 15.18712757,
        "meta_eccentricity": 0.0002549,
        "meta_inclination": 97.4334,
        "meta_ra_of_asc_node": 72.6968,
        "meta_arg_of_pericenter": 62.3181,
        "meta_mean_anomaly": 297.8311,
        "meta_ephemeris_type": 0,
        "meta_classification_type": "U",
        "meta_norad_cat_id": 66775,
        "meta_element_set_no": 999,
        "meta_rev_at_epoch": 431,
        "meta_bstar": 0.00062013,
        "meta_mean_motion_dot": 0.00012815,
        "meta_mean_motion_ddot": 0,
        "tle_line1": "1 66775U 25276DP  25361.15805501  .00012815  00000+0  62013-3 0  9996",
        "tle_line2": "2 66775  97.4334  72.6968 0002549  62.3181 297.8311 15.18712757  4315"
      },
      "geometry": {
        "type": "Point",
        "coordinates": [
          70.85289780516736,
          15.258202716546883
        ]
      }
    },
    {
      "type": "Feature",
      "properties": {
        "norad_id": 66776,
        "name": "TRANSPORTER-15DQ",
        "group": "last-30-days",
        "lat": 18.003483917842566,
        "lon": 70.47544915579255,
        "alt_km": 508.97793712368093,
        "timestamp": "2025-12-27T08:36:17.077841+00:00",
        "meta_object_name": "TRANSPORTER-15DQ",
        "meta_object_id": "2025-276DQ",
        "meta_epoch": "2025-12-27T03:46:52.809888",
        "meta_mean_motion": 15.18768929,
        "meta_eccentricity": 0.0002763,
        "meta_inclination": 97.4372,
        "meta_ra_of_asc_node": 72.7108,
        "meta_arg_of_pericenter": 76.0187,
        "meta_mean_anomaly": 284.1355,
        "meta_ephemeris_type": 0,
        "meta_classification_type": "U",
        "meta_norad_cat_id": 66776,
        "meta_element_set_no": 999,
        "meta_rev_at_epoch": 431,
        "meta_bstar": 0.00066336,
        "meta_mean_motion_dot": 0.00013738,
        "meta_mean_motion_ddot": 0,
        "tle_line1": "1 66776U 25276DQ  25361.15755567  .00013738  00000+0  66336-3 0  9990",
        "tle_line2": "2 66776  97.4372  72.7108 0002763  76.0187 284.1355 15.18768929  4310"
      },
      "geometry": {
        "type": "Point",
        "coordinates": [
          70.47544915579255,
          18.003483917842566
        ]
      }
    },
    {
      "type": "Feature",
      "properties": {
        "norad_id": 66777,
        "name": "TRANSPORTER-15DR",
        "group": "last-30-days",
        "lat": 34.330461788261076,
        "lon": 67.82208164569529,
        "alt_km": 505.68578143668947,
        "timestamp": "2025-12-27T08:36:17.077851+00:00",
        "meta_object_name": "TRANSPORTER-15DR",
        "meta_object_id": "2025-276DR",
        "meta_epoch": "2025-12-27T03:42:35.089056",
        "meta_mean_motion": 15.19024603,
        "meta_eccentricity": 0.0003499,
        "meta_inclination": 97.4461,
        "meta_ra_of_asc_node": 72.7455,
        "meta_arg_of_pericenter": 102.625,
        "meta_mean_anomaly": 257.5376,
        "meta_ephemeris_type": 0,
        "meta_classification_type": "U",
        "meta_norad_cat_id": 66777,
        "meta_element_set_no": 999,
        "meta_rev_at_epoch": 431,
        "meta_bstar": 0.00073054,
        "meta_mean_motion_dot": 0.00015252,
        "meta_mean_motion_ddot": 0,
        "tle_line1": "1 66777U 25276DR  25361.15457279  .00015252  00000+0  73054-3 0  9998",
        "tle_line2": "2 66777  97.4461  72.7455 0003499 102.6250 257.5376 15.19024603  4311"
      },
      "geometry": {
        "type": "Point",
        "coordinates": [
          67.82208164569529,
          34.330461788261076
        ]
      }
    },
    {
      "type": "Feature",
      "properties": {
        "norad_id": 66778,
        "name": "TRANSPORTER-15DS",
        "group": "last-30-days",
        "lat": -22.724584301081954,
        "lon": -110.29138504743912,
        "alt_km": 523.7567411899972,
        "timestamp": "2025-12-27T08:36:17.077861+00:00",
        "meta_object_name": "TRANSPORTER-15DS",
        "meta_object_id": "2025-276DS",
        "meta_epoch": "2025-12-18T19:26:21.991200",
        "meta_mean_motion": 15.16535337,
        "meta_eccentricity": 0.00032319,
        "meta_inclination": 97.4427,
        "meta_ra_of_asc_node": 64.4586,
        "meta_arg_of_pericenter": 41.3734,
        "meta_mean_anomaly": 318.7744,
        "meta_ephemeris_type": 0,
        "meta_classification_type": "U",
        "meta_norad_cat_id": 66778,
        "meta_element_set_no": 999,
        "meta_rev_at_epoch": 304,
        "meta_bstar": 0.00025483693,
        "meta_mean_motion_dot": 4.904e-05,
        "meta_mean_motion_ddot": 0,
        "tle_line1": "1 66778U 25276DS  25352.80997675  .00004904  00000+0  25484-3 0  9996",
        "tle_line2": "2 66778  97.4427  64.4586 0003231  41.3734 318.7744 15.16535337  3043"
      },
      "geometry": {
        "type": "Point",
        "coordinates": [
          -110.29138504743912,
          -22.724584301081954
        ]
      }
    },
    {
      "type": "Feature",
      "properties": {
        "norad_id": 66791,
        "name": "STARLINK-35867",
        "group": "last-30-days",
        "lat": -17.61835960043817,
        "lon": 145.01880945779527,
        "alt_km": 444.8577693002853,
        "timestamp": "2025-12-27T08:36:17.077890+00:00",
        "meta_object_name": "STARLINK-35867",
        "meta_object_id": "2025-278A",
        "meta_epoch": "2025-12-27T04:00:01.998720",
        "meta_mean_motion": 15.40717623,
        "meta_eccentricity": 0.0001549,
        "meta_inclination": 43.0002,
        "meta_ra_of_asc_node": 166.0498,
        "meta_arg_of_pericenter": 296.8975,
        "meta_mean_anomaly": 51.4843,
        "meta_ephemeris_type": 0,
        "meta_classification_type": "U",
        "meta_norad_cat_id": 66791,
        "meta_element_set_no": 999,
        "meta_rev_at_epoch": 527,
        "meta_bstar": 0.00032526,
        "meta_mean_motion_dot": 0.00013315,
        "meta_mean_motion_ddot": 0,
        "tle_line1": "1 66791U 25278A   25361.16668980  .00013315  00000+0  32526-3 0  9997",
        "tle_line2": "2 66791  43.0002 166.0498 0001549 296.8975  51.4843 15.40717623  5274"
      },
      "geometry": {
        "type": "Point",
        "coordinates": [
          145.01880945779527,
          -17.61835960043817
        ]
      }
    },
    {
      "type": "Feature",
      "properties": {
        "norad_id": 66792,
        "name": "STARLINK-35990",
        "group": "last-30-days",
        "lat": 36.74482759248744,
        "lon": -142.0219936954597,
        "alt_km": 409.81699574743743,
        "timestamp": "2025-12-27T08:36:17.077905+00:00",
        "meta_object_name": "STARLINK-35990",
        "meta_object_id": "2025-278B",
        "meta_epoch": "2025-12-27T03:42:13.597056",
        "meta_mean_motion": 15.50613758,
        "meta_eccentricity": 0.0001544,
        "meta_inclination": 42.9997,
        "meta_ra_of_asc_node": 165.9274,
        "meta_arg_of_pericenter": 274.2519,
        "meta_mean_anomaly": 85.8164,
        "meta_ephemeris_type": 0,
        "meta_classification_type": "U",
        "meta_norad_cat_id": 66792,
        "meta_element_set_no": 999,
        "meta_rev_at_epoch": 409,
        "meta_bstar": 0.0017854,
        "meta_mean_motion_dot": 0.00105958,
        "meta_mean_motion_ddot": 0,
        "tle_line1": "1 66792U 25278B   25361.15432404  .00105958  00000+0  17854-2 0  9998",
        "tle_line2": "2 66792  42.9997 165.9274 0001544 274.2519  85.8164 15.50613758  4096"
      },
      "geometry": {
        "type": "Point",
        "coordinates": [
          -142.0219936954597,
          36.74482759248744
        ]
      }
    },
    {
      "type": "Feature",
      "properties": {
        "norad_id": 66793,
        "name": "STARLINK-36051",
        "group": "last-30-days",
        "lat": 38.22454854605861,
        "lon": -137.5795588222257,
        "alt_km": 409.58422779822104,
        "timestamp": "2025-12-27T08:36:17.077916+00:00",
        "meta_object_name": "STARLINK-36051",
        "meta_object_id": "2025-278C",
        "meta_epoch": "2025-12-27T03:41:14.284320",
        "meta_mean_motion": 15.50602721,
        "meta_eccentricity": 0.0001371,
        "meta_inclination": 42.9994,
        "meta_ra_of_asc_node": 165.9219,
        "meta_arg_of_pericenter": 274.0641,
        "meta_mean_anomaly": 86.0062,
        "meta_ephemeris_type": 0,
        "meta_classification_type": "U",
        "meta_norad_cat_id": 66793,
        "meta_element_set_no": 999,
        "meta_rev_at_epoch": 409,
        "meta_bstar": 0.0013324,
        "meta_mean_motion_dot": 0.00078677,
        "meta_mean_motion_ddot": 0,
        "tle_line1": "1 66793U 25278C   25361.15363755  .00078677  00000+0  13324-2 0  9996",
        "tle_line2": "2 66793  42.9994 165.9219 0001371 274.0641  86.0062 15.50602721  4093"
      },
      "geometry": {
        "type": "Point",
        "coordinates": [
          -137.5795588222257,
          38.22454854605861
        ]
      }
    }
  ]
}